Shelter ID,Shelter Name,City,State,Phone,Website
TX2896,Ruff Road Revival,Krum,TX,,https://www.petfinder.com/member/us/tx/krum/ruff-road-revival-tx2896/?referrer_id=deda927d-98bb-4575-a310-15e501c37943
TX1223,Shelter2Rescue Coalition,Arlington,TX,(214) 616-6128,https://www.petfinder.com/member/us/tx/arlington/shelter2rescue-coalition-tx1223/?referrer_id=deda927d-98bb-4575-a310-15e501c37943
TX1568,Cody's Friends Rescue,Dallas,TX,,https://www.petfinder.com/member/us/tx/dallas/codys-friends-rescue-tx1568/?referrer_id=deda927d-98bb-4575-a310-15e501c37943
TX854,Humane Society of Cedar Creek Lake,Seven Points,TX,(903) 432-3422,https://www.petfinder.com/member/us/tx/seven-points/humane-society-of-cedar-creek-lake-tx854/?referrer_id=deda927d-98bb-4575-a310-15e501c37943
TX196,Richardson Humane Society,Richardson,TX,,https://www.petfinder.com/member/us/tx/richardson/richardson-humane-society-tx196/?referrer_id=deda927d-98bb-4575-a310-15e501c37943
TX265,Euless Animal Services - Trinity GAP Rescue,Euless,TX,817-685-1594,https://www.petfinder.com/member/us/tx/euless/euless-animal-services-trinity-gap-rescue-tx265/?referrer_id=deda927d-98bb-4575-a310-15e501c37943
TX1174,Legacy Humane Society,McKinney,TX,(469) 609-7387,https://www.petfinder.com/member/us/tx/mckinney/legacy-humane-society-tx1174/?referrer_id=deda927d-98bb-4575-a310-15e501c37943
RI151,Altruistic Dog Rescue,Warren,RI,,https://www.petfinder.com/member/us/ri/warren/altruistic-dog-rescue-ri151/?referrer_id=deda927d-98bb-4575-a310-15e501c37943
TX1730,Dallas Pets Alive,Dallas,TX,(325) 225-5372,https://www.petfinder.com/member/us/tx/dallas/dallas-pets-alive-tx1730/?referrer_id=deda927d-98bb-4575-a310-15e501c37943
TX26,City of Fort Worth Animal Shelter,Fort Worth,TX,(817) 392-1234,https://www.petfinder.com/member/us/tx/fort-worth/city-of-fort-worth-animal-shelter-tx26/?referrer_id=deda927d-98bb-4575-a310-15e501c37943
TX2779,"A Dog's Way Home Rescue, Inc.",Mathis,TX,(940) 302-0122,https://www.petfinder.com/member/us/tx/mathis/a-dogs-way-home-rescue-inc-tx2779/?referrer_id=deda927d-98bb-4575-a310-15e501c37943
TX309,Humane Society of North Texas,Fort Worth,TX,(817) 332-4768,https://www.petfinder.com/member/us/tx/fort-worth/humane-society-of-north-texas-tx309/?referrer_id=deda927d-98bb-4575-a310-15e501c37943
TX198,SPCA of Texas-Dallas,Dallas,TX,(214) 742-7722,https://www.petfinder.com/member/us/tx/dallas/spca-of-texas-dallas-tx198/?referrer_id=deda927d-98bb-4575-a310-15e501c37943
CA1308,Camp Cocker Rescue,Sherman Oaks,CA,,https://www.petfinder.com/member/us/ca/sherman-oaks/camp-cocker-rescue-ca1308/?referrer_id=deda927d-98bb-4575-a310-15e501c37943
TX341,Farmers Branch Animal Adoption Center,Farmers Branch,TX,(972) 919-8770,https://www.petfinder.com/member/us/tx/farmers-branch/farmers-branch-animal-adoption-center-tx341/?referrer_id=deda927d-98bb-4575-a310-15e501c37943
TX106,Operation Kindness,Carrollton,TX,(972) 418-PAWS (7297),https://www.petfinder.com/member/us/tx/carrollton/operation-kindness-tx106/?referrer_id=deda927d-98bb-4575-a310-15e501c37943
TX401,Tri-City Animal Shelter,Cedar Hill,TX,(972) 291-5335,https://www.petfinder.com/member/us/tx/cedar-hill/tri-city-animal-shelter-tx401/?referrer_id=deda927d-98bb-4575-a310-15e501c37943
TX2337,Saving Hope Animal Rescue Fund,Fort Worth,TX,,https://www.petfinder.com/member/us/tx/fort-worth/saving-hope-animal-rescue-fund-tx2337/?referrer_id=deda927d-98bb-4575-a310-15e501c37943
TX62,Friends for Animals Adoption Shelter,Granbury,TX,(817) 326-3647,https://www.petfinder.com/member/us/tx/granbury/friends-for-animals-adoption-shelter-tx62/?referrer_id=deda927d-98bb-4575-a310-15e501c37943
TX470,City of Lewisville Animal Shelter,Lewisville,TX,(972) 219-3478,https://www.petfinder.com/member/us/tx/lewisville/city-of-lewisville-animal-shelter-tx470/?referrer_id=deda927d-98bb-4575-a310-15e501c37943
TX190,"Texas Great Pyrenees Rescue, Inc.",Quinlan,TX,(877) 746-9508,https://www.petfinder.com/member/us/tx/quinlan/texas-great-pyrenees-rescue-inc-tx190/?referrer_id=deda927d-98bb-4575-a310-15e501c37943
TX2780,Raising The Bar Animal Rescue,Colleyville,TX,,https://www.petfinder.com/member/us/tx/colleyville/raising-the-bar-animal-rescue-tx2780/?referrer_id=deda927d-98bb-4575-a310-15e501c37943
TX2411,Pooch Savers Rescue,Dallas,TX,,https://www.petfinder.com/member/us/tx/dallas/pooch-savers-rescue-tx2411/?referrer_id=deda927d-98bb-4575-a310-15e501c37943
TX2831,GSD Rescue and HCEC,Austin,TX,(405) 202-2932,https://www.petfinder.com/member/us/tx/austin/gsd-rescue-and-hcec-tx2831/?referrer_id=deda927d-98bb-4575-a310-15e501c37943
TX905,Noah's Ark Animal Shelter,Gainesville,TX,(940) 665-9800,https://www.petfinder.com/member/us/tx/gainesville/noahs-ark-animal-shelter-tx905/?referrer_id=deda927d-98bb-4575-a310-15e501c37943
TX236,Dallas Animal Services & Adoption Center,Dallas,TX,(214) 671-0249,https://www.petfinder.com/member/us/tx/dallas/dallas-animal-services-and-adoption-center-tx236/?referrer_id=deda927d-98bb-4575-a310-15e501c37943
TX2427,Little Elm Animal Services,Little Elm,TX,(972) 377-1898,https://www.petfinder.com/member/us/tx/little-elm/little-elm-animal-services-tx2427/?referrer_id=deda927d-98bb-4575-a310-15e501c37943
TX1528,Miles of Hope,Pilot Point,TX,(972) 382-3647,https://www.petfinder.com/member/us/tx/pilot-point/miles-of-hope-tx1528/?referrer_id=deda927d-98bb-4575-a310-15e501c37943
TX225,Irving Animal Services - City of Irving Texas,Irving,TX,(972) 721-2256,https://www.petfinder.com/member/us/tx/irving/irving-animal-services-city-of-irving-texas-tx225/?referrer_id=deda927d-98bb-4575-a310-15e501c37943
TX533,City of Corsicana Animal Shelter,Corsicana,TX,(903) 654-4928,https://www.petfinder.com/member/us/tx/corsicana/city-of-corsicana-animal-shelter-tx533/?referrer_id=deda927d-98bb-4575-a310-15e501c37943
TX1965,Denison Animal Welfare Group,Denison,TX,(903) 361-4211,https://www.petfinder.com/member/us/tx/denison/denison-animal-welfare-group-tx1965/?referrer_id=deda927d-98bb-4575-a310-15e501c37943
TX2154,The Street Dog Project,Dallas,TX,,https://www.petfinder.com/member/us/tx/dallas/the-street-dog-project-tx2154/?referrer_id=deda927d-98bb-4575-a310-15e501c37943
TX54,Weatherford Parker County Animal Shelter,Weatherford,TX,(817) 598-4111,https://www.petfinder.com/member/us/tx/weatherford/weatherford-parker-county-animal-shelter-tx54/?referrer_id=deda927d-98bb-4575-a310-15e501c37943
TX1382,Rockwall Animal Adoption Center,Rockwall,TX,972-771-7750   ,https://www.petfinder.com/member/us/tx/rockwall/rockwall-animal-adoption-center-tx1382/?referrer_id=deda927d-98bb-4575-a310-15e501c37943
TX2890,Reflextion Ranch,Itasca,TX,(254) 266-4464,https://www.petfinder.com/member/us/tx/itasca/reflextion-ranch-tx2890/?referrer_id=deda927d-98bb-4575-a310-15e501c37943
TX1421,Take Me Home Pet Rescue,Richardson,TX,,https://www.petfinder.com/member/us/tx/richardson/take-me-home-pet-rescue-tx1421/?referrer_id=deda927d-98bb-4575-a310-15e501c37943
TX2355,Forget Me Not Rescue TX,Garland,TX,,https://www.petfinder.com/member/us/tx/garland/forget-me-not-rescue-tx-tx2355/?referrer_id=deda927d-98bb-4575-a310-15e501c37943
TX2109,Pets Are Worth Saving (PAWS),Stephenville,TX,,https://www.petfinder.com/member/us/tx/stephenville/pets-are-worth-saving-paws-tx2109/?referrer_id=deda927d-98bb-4575-a310-15e501c37943
TX2385,Dallas Animal Welfare Group,Dallas,TX,(214) 287-1969,https://www.petfinder.com/member/us/tx/dallas/dallas-animal-welfare-group-tx2385/?referrer_id=deda927d-98bb-4575-a310-15e501c37943
TX2797,"Roams To Homes Animal Rescue, Inc.",Conroe,TX,,https://www.petfinder.com/member/us/tx/conroe/roams-to-homes-animal-rescue-inc-tx2797/?referrer_id=deda927d-98bb-4575-a310-15e501c37943
TX903,Second Chance SPCA,Plano,TX,(972) 424-0077,https://www.petfinder.com/member/us/tx/plano/second-chance-spca-tx903/?referrer_id=deda927d-98bb-4575-a310-15e501c37943
TX2145,Forney Animal Shelter,Forney,TX,(972) 552-6634,https://www.petfinder.com/member/us/tx/forney/forney-animal-shelter-tx2145/?referrer_id=deda927d-98bb-4575-a310-15e501c37943
TX2254,Dallas Street Dog Advocates,Richardson,TX,,https://www.petfinder.com/member/us/tx/richardson/dallas-street-dog-advocates-tx2254/?referrer_id=deda927d-98bb-4575-a310-15e501c37943
OK204,Ardmore Animal Care Inc.,Ardmore,OK,(580) 223-7070,https://www.petfinder.com/member/us/ok/ardmore/ardmore-animal-care-inc-ok204/?referrer_id=deda927d-98bb-4575-a310-15e501c37943
TX1243,Furry Friendzy,Dallas,TX,(214) 914-2535,https://www.petfinder.com/member/us/tx/dallas/furry-friendzy-tx1243/?referrer_id=deda927d-98bb-4575-a310-15e501c37943
TX16,North Richland Hills Animal Adoption and Rescue Center,North Richland Hills,TX,(817) 427-6570,https://www.petfinder.com/member/us/tx/north-richland-hills/north-richland-hills-animal-adoption-and-rescue-center-tx16/?referrer_id=deda927d-98bb-4575-a310-15e501c37943
TX2232,Rescue Row,Frisco,TX,(469) 469-7104,https://www.petfinder.com/member/us/tx/frisco/rescue-row-tx2232/?referrer_id=deda927d-98bb-4575-a310-15e501c37943
TX2703,Hannah's Southern Paws,Mesquite,TX,(214) 734-1097,https://www.petfinder.com/member/us/tx/mesquite/hannahs-southern-paws-tx2703/?referrer_id=deda927d-98bb-4575-a310-15e501c37943
TX2338,Fuzzy Texan Animal Rescue,Houston,TX,(512) 766-7374,https://www.petfinder.com/member/us/tx/houston/fuzzy-texan-animal-rescue-tx2338/?referrer_id=deda927d-98bb-4575-a310-15e501c37943
MD539,Pep's Pals Rescue,Brookeville,MD,,https://www.petfinder.com/member/us/md/brookeville/peps-pals-rescue-md539/?referrer_id=deda927d-98bb-4575-a310-15e501c37943
TX1660,Apollo Support & Rescue,Justin,TX,(817) 658-9738,https://www.petfinder.com/member/us/tx/justin/apollo-support-and-rescue-tx1660/?referrer_id=deda927d-98bb-4575-a310-15e501c37943
TX35,Humane Society of Young County,Graham,TX,(940) 549-1692,https://www.petfinder.com/member/us/tx/graham/humane-society-of-young-county-tx35/?referrer_id=deda927d-98bb-4575-a310-15e501c37943
TX209,"Chihuahua Rescue & Transport, Inc",Plano,TX,,https://www.petfinder.com/member/us/tx/plano/chihuahua-rescue-and-transport-inc-tx209/?referrer_id=deda927d-98bb-4575-a310-15e501c37943
TX1335,Animal Advocates of North Texas,Keller,TX,,https://www.petfinder.com/member/us/tx/keller/animal-advocates-of-north-texas-tx1335/?referrer_id=deda927d-98bb-4575-a310-15e501c37943
TX2184,Mini Mutts Animal Rescue,Grand Prairie,TX,,https://www.petfinder.com/member/us/tx/grand-prairie/mini-mutts-animal-rescue-tx2184/?referrer_id=deda927d-98bb-4575-a310-15e501c37943
TX01,Plano Animal Shelter,Plano,TX,(972) 769-4360,https://www.petfinder.com/member/us/tx/plano/plano-animal-shelter-tx01/?referrer_id=deda927d-98bb-4575-a310-15e501c37943
TX480,Sherman Animal Services,Sherman,TX,(903) 892-7255,https://www.petfinder.com/member/us/tx/sherman/sherman-animal-services-tx480/?referrer_id=deda927d-98bb-4575-a310-15e501c37943
TX2718,Pawsome Pals Animal Rescue,Kaufman,TX,(214) 444-3282,https://www.petfinder.com/member/us/tx/kaufman/pawsome-pals-animal-rescue-tx2718/?referrer_id=deda927d-98bb-4575-a310-15e501c37943
TX1877,SPCA of East Texas,Tyler,TX,(903) 596-7722,https://www.petfinder.com/member/us/tx/tyler/spca-of-east-texas-tx1877/?referrer_id=deda927d-98bb-4575-a310-15e501c37943
TX677,Greenville Animal Control Shelter,Greenville,TX,(903) 457-2990,https://www.petfinder.com/member/us/tx/greenville/greenville-animal-control-shelter-tx677/?referrer_id=deda927d-98bb-4575-a310-15e501c37943
TX277,"Clay County Animal Shelter, Inc.",Henrietta,TX,(940) 538-6757,https://www.petfinder.com/member/us/tx/henrietta/clay-county-animal-shelter-inc-tx277/?referrer_id=deda927d-98bb-4575-a310-15e501c37943
TX2654,Weatherford Wags,Weatherford,TX,,https://www.petfinder.com/member/us/tx/weatherford/weatherford-wags-tx2654/?referrer_id=deda927d-98bb-4575-a310-15e501c37943
TX1500,It's Raining Dogs Dog Rescue,Farmersville,TX,(214) 682-0095,https://www.petfinder.com/member/us/tx/farmersville/its-raining-dogs-dog-rescue-tx1500/?referrer_id=deda927d-98bb-4575-a310-15e501c37943
TX2880,Flying B Animal Rescue & Sanctuary,Ennis,TX,(972) 885-7868,https://www.petfinder.com/member/us/tx/ennis/flying-b-animal-rescue-and-sanctuary-tx2880/?referrer_id=deda927d-98bb-4575-a310-15e501c37943
TX2609,The Happy Pet Project,Grapevine,TX,,https://www.petfinder.com/member/us/tx/grapevine/the-happy-pet-project-tx2609/?referrer_id=deda927d-98bb-4575-a310-15e501c37943
TX1765,White Rock Dog Rescue,Dallas,TX,,https://www.petfinder.com/member/us/tx/dallas/white-rock-dog-rescue-tx1765/?referrer_id=deda927d-98bb-4575-a310-15e501c37943
TX2767,Sasha's Pals,Southlake,TX,(817) 992-5031,https://www.petfinder.com/member/us/tx/southlake/sashas-pals-tx2767/?referrer_id=deda927d-98bb-4575-a310-15e501c37943
TX69,Rowlett Animal Shelter,Rowlett,TX,(972) 412-6219,https://www.petfinder.com/member/us/tx/rowlett/rowlett-animal-shelter-tx69/?referrer_id=deda927d-98bb-4575-a310-15e501c37943
TX2238,FixinTexas Animal Advocates,Point,TX,(972) 351-7261,https://www.petfinder.com/member/us/tx/point/fixintexas-animal-advocates-tx2238/?referrer_id=deda927d-98bb-4575-a310-15e501c37943
TX337,4PAWS,Benbrook,TX,,https://www.petfinder.com/member/us/tx/benbrook/4paws-tx337/?referrer_id=deda927d-98bb-4575-a310-15e501c37943
TX2529,For the Dogs Rescue,Carrollton,TX,(214) 908-8541,https://www.petfinder.com/member/us/tx/carrollton/for-the-dogs-rescue-tx2529/?referrer_id=deda927d-98bb-4575-a310-15e501c37943
OK563,Madill Animal Shelter,Madill,OK,(580) 872-4660,https://www.petfinder.com/member/us/ok/madill/madill-animal-shelter-ok563/?referrer_id=deda927d-98bb-4575-a310-15e501c37943
TX2081,Ninja Paws Rescue,Fort Worth,TX,,https://www.petfinder.com/member/us/tx/fort-worth/ninja-paws-rescue-tx2081/?referrer_id=deda927d-98bb-4575-a310-15e501c37943
TX1052,Cowtown Loves Animal Shelter Pets,Fort Worth,TX,(817) 886-7300,https://www.petfinder.com/member/us/tx/fort-worth/cowtown-loves-animal-shelter-pets-tx1052/?referrer_id=deda927d-98bb-4575-a310-15e501c37943
TX112,DFW Humane Society,Irving,TX,(972) 721-7788,https://www.petfinder.com/member/us/tx/irving/dfw-humane-society-tx112/?referrer_id=deda927d-98bb-4575-a310-15e501c37943
TX2833,Pottsboro Animal Welfare Society,Pottsboro,TX,(469) 980-8511,https://www.petfinder.com/member/us/tx/pottsboro/pottsboro-animal-welfare-society-tx2833/?referrer_id=deda927d-98bb-4575-a310-15e501c37943
TX1353,DASH Dog Rescue,Dallas,TX,,https://www.petfinder.com/member/us/tx/dallas/dash-dog-rescue-tx1353/?referrer_id=deda927d-98bb-4575-a310-15e501c37943
TX2012,Allie's Haven Animal Rescue,Fort Worth,TX,,https://www.petfinder.com/member/us/tx/fort-worth/allies-haven-animal-rescue-tx2012/?referrer_id=deda927d-98bb-4575-a310-15e501c37943
TX2812,Unleash The Paws,Tyler,TX,,https://www.petfinder.com/member/us/tx/tyler/unleash-the-paws-tx2812/?referrer_id=deda927d-98bb-4575-a310-15e501c37943
TX444,Grapevine Animal Services,Grapevine,TX,(817) 410-3370,https://www.petfinder.com/member/us/tx/grapevine/grapevine-animal-services-tx444/?referrer_id=deda927d-98bb-4575-a310-15e501c37943
TX1408,Pet Connectors,Haslet,TX,(817) 528-8600,https://www.petfinder.com/member/us/tx/haslet/pet-connectors-tx1408/?referrer_id=deda927d-98bb-4575-a310-15e501c37943
TX1050,Education and Animal Rescue Society (EARS),Dallas,TX,214-559-2817,https://www.petfinder.com/member/us/tx/dallas/education-and-animal-rescue-society-ears-tx1050/?referrer_id=deda927d-98bb-4575-a310-15e501c37943
OK270,Tishomingo Animal Shelter,Tishomingo,OK,(580) 371-8653,https://www.petfinder.com/member/us/ok/tishomingo/tishomingo-animal-shelter-ok270/?referrer_id=deda927d-98bb-4575-a310-15e501c37943
TX276,City of Allen Animal Shelter,Allen,TX,(214) 509-4378,https://www.petfinder.com/member/us/tx/allen/city-of-allen-animal-shelter-tx276/?referrer_id=deda927d-98bb-4575-a310-15e501c37943
TX2678,"Team Rocky Enterprises, Inc.",Bullard,TX,,https://www.petfinder.com/member/us/tx/bullard/team-rocky-enterprises-inc-tx2678/?referrer_id=deda927d-98bb-4575-a310-15e501c37943
TX586,Animal Preservation of East Texas (APET),Mineola,TX,(903) 638-6902,https://www.petfinder.com/member/us/tx/mineola/animal-preservation-of-east-texas-apet-tx586/?referrer_id=deda927d-98bb-4575-a310-15e501c37943
TX1692,City of Waxahachie Animal Control Center,Waxahachie,TX,(469) 309-4150,https://www.petfinder.com/member/us/tx/waxahachie/city-of-waxahachie-animal-control-center-tx1692/?referrer_id=deda927d-98bb-4575-a310-15e501c37943
TX2597,Ace's Place Animal Rescue,Arlington,TX,,https://www.petfinder.com/member/us/tx/arlington/aces-place-animal-rescue-tx2597/?referrer_id=deda927d-98bb-4575-a310-15e501c37943
TX2303,Doodle Dandy Rescue,Garland,TX,,https://www.petfinder.com/member/us/tx/garland/doodle-dandy-rescue-tx2303/?referrer_id=deda927d-98bb-4575-a310-15e501c37943
TX2512,Fort Worth Abandoned Animal Alliance,Benbrook,TX,,https://www.petfinder.com/member/us/tx/benbrook/fort-worth-abandoned-animal-alliance-tx2512/?referrer_id=deda927d-98bb-4575-a310-15e501c37943
TX2115,Dallas DogRRR,Allen,TX,4697672355,https://www.petfinder.com/member/us/tx/allen/dallas-dogrrr-tx2115/?referrer_id=deda927d-98bb-4575-a310-15e501c37943
TX1080,Sunnyvale Animal Control,Sunnyvale,TX,(214) 862-4525,https://www.petfinder.com/member/us/tx/sunnyvale/sunnyvale-animal-control-tx1080/?referrer_id=deda927d-98bb-4575-a310-15e501c37943
TX2686,Code Red Animal Project Inc.,Fort Worth,TX,(817) 880-1715,https://www.petfinder.com/member/us/tx/fort-worth/code-red-animal-project-inc-tx2686/?referrer_id=deda927d-98bb-4575-a310-15e501c37943
TX2583,Make A Stand Bully Rescue,Bryan,TX,,https://www.petfinder.com/member/us/tx/bryan/make-a-stand-bully-rescue-tx2583/?referrer_id=deda927d-98bb-4575-a310-15e501c37943
TX306,Frisco Humane Society,Frisco,TX,(972) 498-8980,https://www.petfinder.com/member/us/tx/frisco/frisco-humane-society-tx306/?referrer_id=deda927d-98bb-4575-a310-15e501c37943
TX2519,North Texas Australian Shepherd Rescue,Arlington,TX,,https://www.petfinder.com/member/us/tx/arlington/north-texas-australian-shepherd-rescue-tx2519/?referrer_id=deda927d-98bb-4575-a310-15e501c37943
TX2909,Abby Road Rescue Sanctuary,Lavon,TX,,https://www.petfinder.com/member/us/tx/lavon/abby-road-rescue-sanctuary-tx2909/?referrer_id=deda927d-98bb-4575-a310-15e501c37943
TX2314,Pond of Love,Dallas,TX,,https://www.petfinder.com/member/us/tx/dallas/pond-of-love-tx2314/?referrer_id=deda927d-98bb-4575-a310-15e501c37943
TX671,Lost Paws Rescue of Texas,Carrollton,TX,,https://www.petfinder.com/member/us/tx/carrollton/lost-paws-rescue-of-texas-tx671/?referrer_id=deda927d-98bb-4575-a310-15e501c37943
TX2304,"A Voice for All Paws, Inc. ",Dallas,TX,,https://www.petfinder.com/member/us/tx/dallas/a-voice-for-all-paws-inc-tx2304/?referrer_id=deda927d-98bb-4575-a310-15e501c37943
TX1659,Grand Prairie Animal Services,Grand Prairie,TX,(972) 237-8575,https://www.petfinder.com/member/us/tx/grand-prairie/grand-prairie-animal-services-tx1659/?referrer_id=deda927d-98bb-4575-a310-15e501c37943
TX2033,Animal Hope,Fort Worth,TX,(817) 984-1129,https://www.petfinder.com/member/us/tx/fort-worth/animal-hope-tx2033/?referrer_id=deda927d-98bb-4575-a310-15e501c37943
TX2561,Texas All Creatures Rescue,Alvarado,TX,,https://www.petfinder.com/member/us/tx/alvarado/texas-all-creatures-rescue-tx2561/?referrer_id=deda927d-98bb-4575-a310-15e501c37943
TX2843,Brizzee Animal Rescue,Haslet,TX,,https://www.petfinder.com/member/us/tx/haslet/brizzee-animal-rescue-tx2843/?referrer_id=deda927d-98bb-4575-a310-15e501c37943
TX2541,Bi-Stone Rescue,Mexia,TX,(254) 203-3466,https://www.petfinder.com/member/us/tx/mexia/bi-stone-rescue-tx2541/?referrer_id=deda927d-98bb-4575-a310-15e501c37943
TX2536,Mutts Galore,Joshua,TX,(817) 477-7916,https://www.petfinder.com/member/us/tx/joshua/mutts-galore-tx2536/?referrer_id=deda927d-98bb-4575-a310-15e501c37943
TX827,City of Saginaw Animal Services,Saginaw,TX,(817) 230-0460,https://www.petfinder.com/member/us/tx/saginaw/city-of-saginaw-animal-services-tx827/?referrer_id=deda927d-98bb-4575-a310-15e501c37943
TX1851,Commerce Animal Shelter,Commerce,TX,(903) 886-1160,https://www.petfinder.com/member/us/tx/commerce/commerce-animal-shelter-tx1851/?referrer_id=deda927d-98bb-4575-a310-15e501c37943
TX1898,iRescue,Weatherford,TX,,https://www.petfinder.com/member/us/tx/weatherford/irescue-tx1898/?referrer_id=deda927d-98bb-4575-a310-15e501c37943
TX551,Texas Pawprints Cat & Kitten Rescue,Dallas,TX,(214) 912-2573,https://www.petfinder.com/member/us/tx/dallas/texas-pawprints-cat-and-kitten-rescue-tx551/?referrer_id=deda927d-98bb-4575-a310-15e501c37943
TX2050,Paws of Love Animal Rescue,Dallas,TX,,https://www.petfinder.com/member/us/tx/dallas/paws-of-love-animal-rescue-tx2050/?referrer_id=deda927d-98bb-4575-a310-15e501c37943
TX2369,Lift Me Up Rescue,Van Alstyne,TX,(972) 543-3874,https://www.petfinder.com/member/us/tx/van-alstyne/lift-me-up-rescue-tx2369/?referrer_id=deda927d-98bb-4575-a310-15e501c37943
TX1656,Animal Rescue Foundation of Texas,Flower Mound,TX,(972) 318-9650,https://www.petfinder.com/member/us/tx/flower-mound/animal-rescue-foundation-of-texas-tx1656/?referrer_id=deda927d-98bb-4575-a310-15e501c37943
TX2723,Rex’s Animal Rescue,Commerce,TX,(972) 729-0017,https://www.petfinder.com/member/us/tx/commerce/rexs-animal-rescue-tx2723/?referrer_id=deda927d-98bb-4575-a310-15e501c37943
TX2611,"Lone Star Underdogs Animal Rescue, Inc.",Rockwall,TX,,https://www.petfinder.com/member/us/tx/rockwall/lone-star-underdogs-animal-rescue-inc-tx2611/?referrer_id=deda927d-98bb-4575-a310-15e501c37943
TX2252,Salvaged Souls Pet Rescue,Colleyville,TX,(214) 555-6565,https://www.petfinder.com/member/us/tx/colleyville/salvaged-souls-pet-rescue-tx2252/?referrer_id=deda927d-98bb-4575-a310-15e501c37943
TX2439,Baby Gunn's Animal Rescue,Paris,TX,,https://www.petfinder.com/member/us/tx/paris/baby-gunns-animal-rescue-tx2439/?referrer_id=deda927d-98bb-4575-a310-15e501c37943
TX2499,New Favorite Day,EMORY,TX,(903) 474-1408,https://www.petfinder.com/member/us/tx/emory/new-favorite-day-tx2499/?referrer_id=deda927d-98bb-4575-a310-15e501c37943
TX2798,Mike's Chance Animal Rescue,Allen,TX,(408) 857-3616,https://www.petfinder.com/member/us/tx/allen/mikes-chance-animal-rescue-tx2798/?referrer_id=deda927d-98bb-4575-a310-15e501c37943
TX2846,Paws for Progress of Ladonia,Ladonia,TX,,https://www.petfinder.com/member/us/tx/ladonia/paws-for-progress-of-ladonia-tx2846/?referrer_id=deda927d-98bb-4575-a310-15e501c37943
TX1221,Texas Little Cuties (TLC) Rescue,Plano,TX,,https://www.petfinder.com/member/us/tx/plano/texas-little-cuties-tlc-rescue-tx1221/?referrer_id=deda927d-98bb-4575-a310-15e501c37943
TX605,West Side Animal League,White Settlement,TX,(817) 565-8222,https://www.petfinder.com/member/us/tx/white-settlement/west-side-animal-league-tx605/?referrer_id=deda927d-98bb-4575-a310-15e501c37943
TX976,Collin County Animal Services,McKinney,TX,(972) 547-7292,https://www.petfinder.com/member/us/tx/mckinney/collin-county-animal-services-tx976/?referrer_id=deda927d-98bb-4575-a310-15e501c37943
TX1752,Royse City Animal Shelter,Royse City,TX,(972) 524-4709,https://www.petfinder.com/member/us/tx/royse-city/royse-city-animal-shelter-tx1752/?referrer_id=deda927d-98bb-4575-a310-15e501c37943
TX493,Springtown Animal Shelter,Springtown,TX,(817) 220-0828,https://www.petfinder.com/member/us/tx/springtown/springtown-animal-shelter-tx493/?referrer_id=deda927d-98bb-4575-a310-15e501c37943
TX2244,Bluebonnet Animal Rescue Network,Whitewright,TX,,https://www.petfinder.com/member/us/tx/whitewright/bluebonnet-animal-rescue-network-tx2244/?referrer_id=deda927d-98bb-4575-a310-15e501c37943
TX406,East Lake Pet Orphanage,Dallas,TX,(214) 342-3100,https://www.petfinder.com/member/us/tx/dallas/east-lake-pet-orphanage-tx406/?referrer_id=deda927d-98bb-4575-a310-15e501c37943
TX686,Dallas-Fort Worth Dachshund Rescue Foundation,Colleyville,TX,(817) 481-9272,https://www.petfinder.com/member/us/tx/colleyville/dallas-fort-worth-dachshund-rescue-foundation-tx686/?referrer_id=deda927d-98bb-4575-a310-15e501c37943
TX1744,City of Red Oak Animal Shelter,Red Oak,TX,(469) 218-7721,https://www.petfinder.com/member/us/tx/red-oak/city-of-red-oak-animal-shelter-tx1744/?referrer_id=deda927d-98bb-4575-a310-15e501c37943
TX591,SPIN (Saving Pyrs In Need): A Great Pyrenees Rescue,Garland,TX,,https://www.petfinder.com/member/us/tx/garland/spin-saving-pyrs-in-need-a-great-pyrenees-rescue-tx591/?referrer_id=deda927d-98bb-4575-a310-15e501c37943
TX2788,Mutts N Such Rescue,Fort Worth,TX,(817) 725-7023,https://www.petfinder.com/member/us/tx/fort-worth/mutts-n-such-rescue-tx2788/?referrer_id=deda927d-98bb-4575-a310-15e501c37943
TX2690,Highway Hounds Animal Rescue and Transport,fort worth,TX,(817) 903-0833,https://www.petfinder.com/member/us/tx/fort-worth/highway-hounds-animal-rescue-and-transport-tx2690/?referrer_id=deda927d-98bb-4575-a310-15e501c37943
TX2625,7 Pups from the Pines TX,Scroggins,TX,,https://www.petfinder.com/member/us/tx/scroggins/7-pups-from-the-pines-tx-tx2625/?referrer_id=deda927d-98bb-4575-a310-15e501c37943
TX2744,"Hearts and Howls, Inc.",Forney,TX,,https://www.petfinder.com/member/us/tx/forney/hearts-and-howls-inc-tx2744/?referrer_id=deda927d-98bb-4575-a310-15e501c37943
TX934,Watauga Animal Shelter,Watauga,TX,(817) 656-9614,https://www.petfinder.com/member/us/tx/watauga/watauga-animal-shelter-tx934/?referrer_id=deda927d-98bb-4575-a310-15e501c37943
TX103,North Texas Basset Hound Rescue Inc.,Grapevine,TX,(817) 366-5649,https://www.petfinder.com/member/us/tx/grapevine/north-texas-basset-hound-rescue-inc-tx103/?referrer_id=deda927d-98bb-4575-a310-15e501c37943
PA1216,SafeHART (SafeHaven Animal Rescue Team),Pottstown,PA,,https://www.petfinder.com/member/us/pa/pottstown/safehart-safehaven-animal-rescue-team-pa1216/?referrer_id=deda927d-98bb-4575-a310-15e501c37943
TX2234,Easy Street Animal Shelter,Saint Jo,TX,(940) 613-6865,https://www.petfinder.com/member/us/tx/saint-jo/easy-street-animal-shelter-tx2234/?referrer_id=deda927d-98bb-4575-a310-15e501c37943
TX448,Wylie Animal Shelter,Wylie,TX,(972) 429-8047,https://www.petfinder.com/member/us/tx/wylie/wylie-animal-shelter-tx448/?referrer_id=deda927d-98bb-4575-a310-15e501c37943
TX1203,Tzu Zoo Rescue,Plano,TX,,https://www.petfinder.com/member/us/tx/plano/tzu-zoo-rescue-tx1203/?referrer_id=deda927d-98bb-4575-a310-15e501c37943
TX85,Adopt a Husky of Dallas Inc.,Plano,TX,(214) 603-7211,https://www.petfinder.com/member/us/tx/plano/adopt-a-husky-of-dallas-inc-tx85/?referrer_id=deda927d-98bb-4575-a310-15e501c37943
TX2864,The Xena Project NTX,Forney,TX,,https://www.petfinder.com/member/us/tx/forney/the-xena-project-ntx-tx2864/?referrer_id=deda927d-98bb-4575-a310-15e501c37943
TX1634,Rockwall Pets,Rockwall,TX,(972) 696-9738,https://www.petfinder.com/member/us/tx/rockwall/rockwall-pets-tx1634/?referrer_id=deda927d-98bb-4575-a310-15e501c37943
NY1434,Be Their Voice Rescue,Dallas,TX,,https://www.petfinder.com/member/us/tx/dallas/be-their-voice-rescue-ny1434/?referrer_id=deda927d-98bb-4575-a310-15e501c37943
TX2088,East Dallas Pet Rescue,Mesquite,TX,(469) 554-6208,https://www.petfinder.com/member/us/tx/mesquite/east-dallas-pet-rescue-tx2088/?referrer_id=deda927d-98bb-4575-a310-15e501c37943
TX2123,The Love Pit,Dallas,TX,,https://www.petfinder.com/member/us/tx/dallas/the-love-pit-tx2123/?referrer_id=deda927d-98bb-4575-a310-15e501c37943
TX1654,Habitat 4 Paws,Frisco,TX,,https://www.petfinder.com/member/us/tx/frisco/habitat-4-paws-tx1654/?referrer_id=deda927d-98bb-4575-a310-15e501c37943
TX1610,Home At Last Animal Haven  [HALAH],Godley,TX,,https://www.petfinder.com/member/us/tx/godley/home-at-last-animal-haven-halah-tx1610/?referrer_id=deda927d-98bb-4575-a310-15e501c37943
TX2004,CAMO - Rescue,Houston,TX,,https://www.petfinder.com/member/us/tx/houston/camo-rescue-tx2004/?referrer_id=deda927d-98bb-4575-a310-15e501c37943
TX2899,Montague County Animal Rescue,Bowie,TX,(469) 951-0215,https://www.petfinder.com/member/us/tx/bowie/montague-county-animal-rescue-tx2899/?referrer_id=deda927d-98bb-4575-a310-15e501c37943
TX2194,"Little Dog Rescue of North Texas, Inc.",Little Elm,TX,(972) 951-3647,https://www.petfinder.com/member/us/tx/little-elm/little-dog-rescue-of-north-texas-inc-tx2194/?referrer_id=deda927d-98bb-4575-a310-15e501c37943
TX2525,(FUR) Friends United in Rescue,Rowlett,TX,(214) 962-4236,https://www.petfinder.com/member/us/tx/rowlett/fur-friends-united-in-rescue-tx2525/?referrer_id=deda927d-98bb-4575-a310-15e501c37943
TX2141,Second Chance Farm,Granbury,TX,(817) 243-8172,https://www.petfinder.com/member/us/tx/granbury/second-chance-farm-tx2141/?referrer_id=deda927d-98bb-4575-a310-15e501c37943
TX150,Recycled Poms and Schipperkes,Garland,TX,(214) 775-0648,https://www.petfinder.com/member/us/tx/garland/recycled-poms-and-schipperkes-tx150/?referrer_id=deda927d-98bb-4575-a310-15e501c37943
TX2279,PacoCorp Rescue,Euless,TX,(682) 503-1837,https://www.petfinder.com/member/us/tx/euless/pacocorp-rescue-tx2279/?referrer_id=deda927d-98bb-4575-a310-15e501c37943
TX1570,Hood Co Animal Lovers Organization,Granbury,TX,(817) 564-2085,https://www.petfinder.com/member/us/tx/granbury/hood-co-animal-lovers-organization-tx1570/?referrer_id=deda927d-98bb-4575-a310-15e501c37943
TX2627,Second Chance Dog Rescue Mansfield (SCDR),Mansfield,TX,,https://www.petfinder.com/member/us/tx/mansfield/second-chance-dog-rescue-mansfield-scdr-tx2627/?referrer_id=deda927d-98bb-4575-a310-15e501c37943
TX1940,West Alabama Animal Clinic,Houston,TX,(713) 528-0818,https://www.petfinder.com/member/us/tx/houston/west-alabama-animal-clinic-tx1940/?referrer_id=deda927d-98bb-4575-a310-15e501c37943
TX2887,Pawprints of Hope Rescue,Aledo,TX,(252) 622-8119,https://www.petfinder.com/member/us/tx/aledo/pawprints-of-hope-rescue-tx2887/?referrer_id=deda927d-98bb-4575-a310-15e501c37943
TX938,Texas Best Choices Animal Rescue,Quinlan,TX,(214) 535-5230,https://www.petfinder.com/member/us/tx/quinlan/texas-best-choices-animal-rescue-tx938/?referrer_id=deda927d-98bb-4575-a310-15e501c37943
OK564,"Lucky Paws Doghouse, Inc.",Tishomingo,OK,(580) 257-0622,https://www.petfinder.com/member/us/ok/tishomingo/lucky-paws-doghouse-inc-ok564/?referrer_id=deda927d-98bb-4575-a310-15e501c37943
TX587,Cleburne Animal Shelter,Cleburne,TX,(817) 556-8895,https://www.petfinder.com/member/us/tx/cleburne/cleburne-animal-shelter-tx587/?referrer_id=deda927d-98bb-4575-a310-15e501c37943
TX1329,Texas Cattle Dog Rescue,Fort Worth,TX,,https://www.petfinder.com/member/us/tx/fort-worth/texas-cattle-dog-rescue-tx1329/?referrer_id=deda927d-98bb-4575-a310-15e501c37943
TX1530,DFW Rescue Me,Dallas,TX,,https://www.petfinder.com/member/us/tx/dallas/dfw-rescue-me-tx1530/?referrer_id=deda927d-98bb-4575-a310-15e501c37943
TX2366,Pet Lives Matter 2,Cumby,TX,(214) 334-9308,https://www.petfinder.com/member/us/tx/cumby/pet-lives-matter-2-tx2366/?referrer_id=deda927d-98bb-4575-a310-15e501c37943
TX2410,Myranda's Mended Souls Rescue,ROWLETT,TX,(214) 802-5844,https://www.petfinder.com/member/us/tx/rowlett/myrandas-mended-souls-rescue-tx2410/?referrer_id=deda927d-98bb-4575-a310-15e501c37943
AZ41,National Anatolian Shepherd Rescue Network,Queen Creek,AZ,,https://www.petfinder.com/member/us/az/queen-creek/national-anatolian-shepherd-rescue-network-az41/?referrer_id=deda927d-98bb-4575-a310-15e501c37943
TX1368,C.A.R.E. Community Animal Rescue Effort,Mingus,TX,(254) 631-6937,https://www.petfinder.com/member/us/tx/mingus/c-dot-ar-dot-e-community-animal-rescue-effort-tx1368/?referrer_id=deda927d-98bb-4575-a310-15e501c37943
TX622,Richland Hills Animal Services,Richland Hills,TX,(817) 616-3769,https://www.petfinder.com/member/us/tx/richland-hills/richland-hills-animal-services-tx622/?referrer_id=deda927d-98bb-4575-a310-15e501c37943
TX299,Straydog Inc.,Gun Barrel City,TX,(903) 479-3497,https://www.petfinder.com/member/us/tx/gun-barrel-city/straydog-inc-tx299/?referrer_id=deda927d-98bb-4575-a310-15e501c37943
TX882,South Central Bloodhound Club,Dallas,TX,,https://www.petfinder.com/member/us/tx/dallas/south-central-bloodhound-club-tx882/?referrer_id=deda927d-98bb-4575-a310-15e501c37943
TX462,Joshua Animal Shelter,Joshua,TX,(817) 774-9450,https://www.petfinder.com/member/us/tx/joshua/joshua-animal-shelter-tx462/?referrer_id=deda927d-98bb-4575-a310-15e501c37943
TX294,Animal Allies of Texas,Garland,TX,(800) 737-1425,https://www.petfinder.com/member/us/tx/garland/animal-allies-of-texas-tx294/?referrer_id=deda927d-98bb-4575-a310-15e501c37943
TX1326,Texas Husky Rescue,Carrollton,TX,(877) 894-8759,https://www.petfinder.com/member/us/tx/carrollton/texas-husky-rescue-tx1326/?referrer_id=deda927d-98bb-4575-a310-15e501c37943
TX2511,SDR Rescue,Dallas,TX,,https://www.petfinder.com/member/us/tx/dallas/sdr-rescue-tx2511/?referrer_id=deda927d-98bb-4575-a310-15e501c37943
TX2676,Leo's Friends Rescue,Wills Point,TX,(469) 838-0686,https://www.petfinder.com/member/us/tx/wills-point/leos-friends-rescue-tx2676/?referrer_id=deda927d-98bb-4575-a310-15e501c37943
TX2871,Happy FurEver,Pilot Point,TX,(945) 308-0000,https://www.petfinder.com/member/us/tx/pilot-point/happy-furever-tx2871/?referrer_id=deda927d-98bb-4575-a310-15e501c37943
TX2349,Emma's Wish Senior Dog Rescue,Plano,TX,(972) 948-4054,https://www.petfinder.com/member/us/tx/plano/emmas-wish-senior-dog-rescue-tx2349/?referrer_id=deda927d-98bb-4575-a310-15e501c37943
TX2157,Every Life Matters Animal Rescue,Celina,TX,,https://www.petfinder.com/member/us/tx/celina/every-life-matters-animal-rescue-tx2157/?referrer_id=deda927d-98bb-4575-a310-15e501c37943
TX2377,Texoma Dog Ranch,Denison,TX,(903) 271-0207,https://www.petfinder.com/member/us/tx/denison/texoma-dog-ranch-tx2377/?referrer_id=deda927d-98bb-4575-a310-15e501c37943
TX881,Greyhounds Unlimited,Dallas,TX,(972) 503-4739,https://www.petfinder.com/member/us/tx/dallas/greyhounds-unlimited-tx881/?referrer_id=deda927d-98bb-4575-a310-15e501c37943
TX86,Weimaraner Rescue of Texas,Dallas,TX,(972) 994-3572,https://www.petfinder.com/member/us/tx/dallas/weimaraner-rescue-of-texas-tx86/?referrer_id=deda927d-98bb-4575-a310-15e501c37943
TX93,Denton Humane Society,Denton,TX,(940) 382-7387,https://www.petfinder.com/member/us/tx/denton/denton-humane-society-tx93/?referrer_id=deda927d-98bb-4575-a310-15e501c37943
TX1282,All Border Collie Rescue,The Woodlands,TX,,https://www.petfinder.com/member/us/tx/the-woodlands/all-border-collie-rescue-tx1282/?referrer_id=deda927d-98bb-4575-a310-15e501c37943
TX1551,Canine Karma Rescue,Whitewright,TX,,https://www.petfinder.com/member/us/tx/whitewright/canine-karma-rescue-tx1551/?referrer_id=deda927d-98bb-4575-a310-15e501c37943
TX2421,Schnauzer Ranch and Friends Texas Inc,Sanger,TX,(940) 391-7701,https://www.petfinder.com/member/us/tx/sanger/schnauzer-ranch-and-friends-texas-inc-tx2421/?referrer_id=deda927d-98bb-4575-a310-15e501c37943
TX318,Animal Refuge Foundation,Sherman,TX,903-564-7056,https://www.petfinder.com/member/us/tx/sherman/animal-refuge-foundation-tx318/?referrer_id=deda927d-98bb-4575-a310-15e501c37943
TX1619,"Texas Sporting Breed Rescue, Inc.",Denton,TX,(940) 453-6894,https://www.petfinder.com/member/us/tx/denton/texas-sporting-breed-rescue-inc-tx1619/?referrer_id=deda927d-98bb-4575-a310-15e501c37943
TX2734,Hope Rescue Ranch,Mabank,TX,(430) 272-0943,https://www.petfinder.com/member/us/tx/mabank/hope-rescue-ranch-tx2734/?referrer_id=deda927d-98bb-4575-a310-15e501c37943
OK10,Small Paws Rescue Inc.,Tulsa,OK,,https://www.petfinder.com/member/us/ok/tulsa/small-paws-rescue-inc-ok10/?referrer_id=deda927d-98bb-4575-a310-15e501c37943
TX2792,Murdock's Mission,Fort Worth,TX,(682) 233-5811,https://www.petfinder.com/member/us/tx/fort-worth/murdocks-mission-tx2792/?referrer_id=deda927d-98bb-4575-a310-15e501c37943
TX2858,Cockrell Hill Animal Shelter,Cockrell Hill,TX,(469) 781-0566,https://www.petfinder.com/member/us/tx/cockrell-hill/cockrell-hill-animal-shelter-tx2858/?referrer_id=deda927d-98bb-4575-a310-15e501c37943
TX860,Sachse Animal Shelter,Sachse,TX,(972) 495-2271 ext. 157,https://www.petfinder.com/member/us/tx/sachse/sachse-animal-shelter-tx860/?referrer_id=deda927d-98bb-4575-a310-15e501c37943
TX1833,Angie's Friends,Dallas,TX,(678) 665-8571,https://www.petfinder.com/member/us/tx/dallas/angies-friends-tx1833/?referrer_id=deda927d-98bb-4575-a310-15e501c37943
TX2648,Kindred Spirits Dog Sanctuary & Rescue,Springtown,TX,(214) 952-0750,https://www.petfinder.com/member/us/tx/springtown/kindred-spirits-dog-sanctuary-and-rescue-tx2648/?referrer_id=deda927d-98bb-4575-a310-15e501c37943
TX2032,CoPilot Animal Rescue,Sanger,TX,(425) 502-0421,https://www.petfinder.com/member/us/tx/sanger/copilot-animal-rescue-tx2032/?referrer_id=deda927d-98bb-4575-a310-15e501c37943
TX2919,"Sunshine Acres Animal Sanctuary, Inc.",Royse City,TX,(469) 952-1192,https://www.petfinder.com/member/us/tx/royse-city/sunshine-acres-animal-sanctuary-inc-tx2919/?referrer_id=deda927d-98bb-4575-a310-15e501c37943
TX2436,IF by Innergy,Dallas,TX,,https://www.petfinder.com/member/us/tx/dallas/if-by-innergy-tx2436/?referrer_id=deda927d-98bb-4575-a310-15e501c37943
TX1348,Lucy's Lost Loved Ones,Fort Worth,TX,,https://www.petfinder.com/member/us/tx/fort-worth/lucys-lost-loved-ones-tx1348/?referrer_id=deda927d-98bb-4575-a310-15e501c37943
TX2681,Second Chance Rescue group,Denton,TX,(817) 308-2590,https://www.petfinder.com/member/us/tx/denton/second-chance-rescue-group-tx2681/?referrer_id=deda927d-98bb-4575-a310-15e501c37943
TX1741,Lone Star Doberman Rescue,Benbrook,TX,,https://www.petfinder.com/member/us/tx/benbrook/lone-star-doberman-rescue-tx1741/?referrer_id=deda927d-98bb-4575-a310-15e501c37943
CA2840,The Pawerful Rescue,Los Angeles,CA,,https://www.petfinder.com/member/us/ca/los-angeles/the-pawerful-rescue-ca2840/?referrer_id=deda927d-98bb-4575-a310-15e501c37943
TX2129,Cane Rosso Rescue,Dallas,TX,,https://www.petfinder.com/member/us/tx/dallas/cane-rosso-rescue-tx2129/?referrer_id=deda927d-98bb-4575-a310-15e501c37943
TX1407,DFW Pup Patrol Rescue,Wylie,TX,(214) 912-8191,https://www.petfinder.com/member/us/tx/wylie/dfw-pup-patrol-rescue-tx1407/?referrer_id=deda927d-98bb-4575-a310-15e501c37943
TX1754,DFW FurGotten Friends,Carrollton,TX,,https://www.petfinder.com/member/us/tx/carrollton/dfw-furgotten-friends-tx1754/?referrer_id=deda927d-98bb-4575-a310-15e501c37943
TX398,Town of Hickory Creek Animal Adoption Center,Lake Dallas,TX,(940) 465-7444,https://www.petfinder.com/member/us/tx/lake-dallas/town-of-hickory-creek-animal-adoption-center-tx398/?referrer_id=deda927d-98bb-4575-a310-15e501c37943
TX2059,I Am Dog Rescue INC,Cross Roads,TX,(940) 202-0951,https://www.petfinder.com/member/us/tx/cross-roads/i-am-dog-rescue-inc-tx2059/?referrer_id=deda927d-98bb-4575-a310-15e501c37943
TX2701,Noah's Paws Animal Rescue,Richland Hills,TX,,https://www.petfinder.com/member/us/tx/richland-hills/noahs-paws-animal-rescue-tx2701/?referrer_id=deda927d-98bb-4575-a310-15e501c37943
TX1340,Oak Hill Animal Rescue Inc,Seagoville,TX,(972) 287-9150,https://www.petfinder.com/member/us/tx/seagoville/oak-hill-animal-rescue-inc-tx1340/?referrer_id=deda927d-98bb-4575-a310-15e501c37943
TX633,Friends of the Bowie Animal Shelter,Bowie,TX,(940) 841-1425,https://www.petfinder.com/member/us/tx/bowie/friends-of-the-bowie-animal-shelter-tx633/?referrer_id=deda927d-98bb-4575-a310-15e501c37943
TX2901,Momma & Friends Rescue,Arlington,TX,(817) 264-7226,https://www.petfinder.com/member/us/tx/arlington/momma-and-friends-rescue-tx2901/?referrer_id=deda927d-98bb-4575-a310-15e501c37943
TX2312,Animal Rescue Crusaders of Texas,Parker,TX,,https://www.petfinder.com/member/us/tx/parker/animal-rescue-crusaders-of-texas-tx2312/?referrer_id=deda927d-98bb-4575-a310-15e501c37943
TX2891,Ruh Roh Rescue,Royse City,TX,(469) 981-9074,https://www.petfinder.com/member/us/tx/royse-city/ruh-roh-rescue-tx2891/?referrer_id=deda927d-98bb-4575-a310-15e501c37943
OK555,Durant Animal Shelter,Durant,OK,(580) 924-3737,https://www.petfinder.com/member/us/ok/durant/durant-animal-shelter-ok555/?referrer_id=deda927d-98bb-4575-a310-15e501c37943
TX2276,Doggy Darlings,Houston,TX,,https://www.petfinder.com/member/us/tx/houston/doggy-darlings-tx2276/?referrer_id=deda927d-98bb-4575-a310-15e501c37943
TX2424,Mid-Cities Animal Rescue,North Richland Hills,TX,(682) 200-9877,https://www.petfinder.com/member/us/tx/north-richland-hills/mid-cities-animal-rescue-tx2424/?referrer_id=deda927d-98bb-4575-a310-15e501c37943
TX2766,Friends of Destiny,Arlington,TX,,https://www.petfinder.com/member/us/tx/arlington/friends-of-destiny-tx2766/?referrer_id=deda927d-98bb-4575-a310-15e501c37943
TX2449,Code Red Rescue,Fort Worth,TX,,https://www.petfinder.com/member/us/tx/fort-worth/code-red-rescue-tx2449/?referrer_id=deda927d-98bb-4575-a310-15e501c37943
TX1342,Hood County Sheriff Animal Control,Granbury,TX,(817) 573-4277,https://www.petfinder.com/member/us/tx/granbury/hood-county-sheriff-animal-control-tx1342/?referrer_id=deda927d-98bb-4575-a310-15e501c37943
TX179,Texas Independent Rhodesian Ridgeback Rescue,Paradise,TX,(817) 454-6023,https://www.petfinder.com/member/us/tx/paradise/texas-independent-rhodesian-ridgeback-rescue-tx179/?referrer_id=deda927d-98bb-4575-a310-15e501c37943
TX2508,"VSSS Rescue, Inc.",Springtown,TX,(817) 291-8206,https://www.petfinder.com/member/us/tx/springtown/vsss-rescue-inc-tx2508/?referrer_id=deda927d-98bb-4575-a310-15e501c37943
AZ711,Hope of Deliverance,Tucson,AZ,(330) 647-9963,https://www.petfinder.com/member/us/az/tucson/hope-of-deliverance-az711/?referrer_id=deda927d-98bb-4575-a310-15e501c37943
TX1617,League of Animal Protectors,Dallas,TX,,https://www.petfinder.com/member/us/tx/dallas/league-of-animal-protectors-tx1617/?referrer_id=deda927d-98bb-4575-a310-15e501c37943
TX2670,Holly Lake Dog Shelter Group,Hawkins,TX,(832) 715-9754,https://www.petfinder.com/member/us/tx/hawkins/holly-lake-dog-shelter-group-tx2670/?referrer_id=deda927d-98bb-4575-a310-15e501c37943
TX2874,Lighthouse Dog Rescue,Pantego,TX,(817) 688-6319,https://www.petfinder.com/member/us/tx/pantego/lighthouse-dog-rescue-tx2874/?referrer_id=deda927d-98bb-4575-a310-15e501c37943
TX2554,Precious Diamonds Rescue and Sanctuary,Anna,TX,,https://www.petfinder.com/member/us/tx/anna/precious-diamonds-rescue-and-sanctuary-tx2554/?referrer_id=deda927d-98bb-4575-a310-15e501c37943
TX2104,Nocona Lucky Paws Animal Shelter,Nocona,TX,(940) 867-5015,https://www.petfinder.com/member/us/tx/nocona/nocona-lucky-paws-animal-shelter-tx2104/?referrer_id=deda927d-98bb-4575-a310-15e501c37943
TX1938,Drowzy Dawg Rescue,Covington,TX,(817) 726-8380,https://www.petfinder.com/member/us/tx/covington/drowzy-dawg-rescue-tx1938/?referrer_id=deda927d-98bb-4575-a310-15e501c37943
TX2552,Marleigh's Friends,Carrollton,TX,,https://www.petfinder.com/member/us/tx/carrollton/marleighs-friends-tx2552/?referrer_id=deda927d-98bb-4575-a310-15e501c37943
TX2282,Bark Ark and Purr Rescue,Venus,TX,(817) 929-6633,https://www.petfinder.com/member/us/tx/venus/bark-ark-and-purr-rescue-tx2282/?referrer_id=deda927d-98bb-4575-a310-15e501c37943
TX2907,Frankie's House Animal Rescue,WAXAHACHIE,TX,,https://www.petfinder.com/member/us/tx/waxahachie/frankies-house-animal-rescue-tx2907/?referrer_id=deda927d-98bb-4575-a310-15e501c37943
TX2873,Molly's House Special Needs and Senior Sanctuary,The Colony,TX,,https://www.petfinder.com/member/us/tx/the-colony/mollys-house-special-needs-and-senior-sanctuary-tx2873/?referrer_id=deda927d-98bb-4575-a310-15e501c37943
TX917,"Texas Old English Sheepdog Rescue, Inc.",Argyle,TX,,https://www.petfinder.com/member/us/tx/argyle/texas-old-english-sheepdog-rescue-inc-tx917/?referrer_id=deda927d-98bb-4575-a310-15e501c37943
TX2036,House of Meows - HOME Rescue,Arlington,TX,,https://www.petfinder.com/member/us/tx/arlington/house-of-meows-home-rescue-tx2036/?referrer_id=deda927d-98bb-4575-a310-15e501c37943
TX848,St. Clouds Rescue,McKinney,TX,(972) 679-5319,https://www.petfinder.com/member/us/tx/mckinney/st-clouds-rescue-tx848/?referrer_id=deda927d-98bb-4575-a310-15e501c37943
TX2902,City of Mexia Animal Control,Mexia,TX,(254) 722-0563,https://www.petfinder.com/member/us/tx/mexia/city-of-mexia-animal-control-tx2902/?referrer_id=deda927d-98bb-4575-a310-15e501c37943
TX2802,River Oaks Animal Shelter,River oaks,TX,(817) 626-1991 ext. 333,https://www.petfinder.com/member/us/tx/river-oaks/river-oaks-animal-shelter-tx2802/?referrer_id=deda927d-98bb-4575-a310-15e501c37943
TX1707,BAV-Braveheart Animal Volunteers,Bonham,TX,,https://www.petfinder.com/member/us/tx/bonham/bav-braveheart-animal-volunteers-tx1707/?referrer_id=deda927d-98bb-4575-a310-15e501c37943
TN488,Blackjack Animal Rescue,Piney Flats,TN,,https://www.petfinder.com/member/us/tn/piney-flats/blackjack-animal-rescue-tn488/?referrer_id=deda927d-98bb-4575-a310-15e501c37943
TX2556,Peppy Pet Rescue,Paradise,TX,(214) 923-0097,https://www.petfinder.com/member/us/tx/paradise/peppy-pet-rescue-tx2556/?referrer_id=deda927d-98bb-4575-a310-15e501c37943
TX2062,City of Ferris Animal Shelter,Ferris,TX,(972) 544-2110,https://www.petfinder.com/member/us/tx/ferris/city-of-ferris-animal-shelter-tx2062/?referrer_id=deda927d-98bb-4575-a310-15e501c37943
TX296,Humane Society of Navarro County,Corsicana,TX,(903) 875-1060,https://www.petfinder.com/member/us/tx/corsicana/humane-society-of-navarro-county-tx296/?referrer_id=deda927d-98bb-4575-a310-15e501c37943
TX2384,Buddha and the Bull,Dallas,TX,(214) 629-7914,https://www.petfinder.com/member/us/tx/dallas/buddha-and-the-bull-tx2384/?referrer_id=deda927d-98bb-4575-a310-15e501c37943
MA499, Joyful Pets Animal Rescue,Amherst,MA,,https://www.petfinder.com/member/us/ma/amherst/joyful-pets-animal-rescue-ma499/?referrer_id=deda927d-98bb-4575-a310-15e501c37943
TX944,Kool Kats and Kanines,Fort Worth,TX,(817) 991-0729,https://www.petfinder.com/member/us/tx/fort-worth/kool-kats-and-kanines-tx944/?referrer_id=deda927d-98bb-4575-a310-15e501c37943
TX72,Humane Society of Dallas,Dallas,TX,214-350-7387  ,https://www.petfinder.com/member/us/tx/dallas/humane-society-of-dallas-tx72/?referrer_id=deda927d-98bb-4575-a310-15e501c37943
TX1855,Terrell Animal Alliance,Terrell,TX,(972) 345-3682,https://www.petfinder.com/member/us/tx/terrell/terrell-animal-alliance-tx1855/?referrer_id=deda927d-98bb-4575-a310-15e501c37943
TX1797,Sadie's Place Animal Rescue and Adoptions,Lone Oak,TX,(903) 458-0797,https://www.petfinder.com/member/us/tx/lone-oak/sadies-place-animal-rescue-and-adoptions-tx1797/?referrer_id=deda927d-98bb-4575-a310-15e501c37943
LA404,Lost Ball Canine Rescue,Tallulah,LA,,https://www.petfinder.com/member/us/la/tallulah/lost-ball-canine-rescue-la404/?referrer_id=deda927d-98bb-4575-a310-15e501c37943
TX325,Great Dane Rescue of North Texas Inc.,Carrollton,TX,(214) 888-6590,https://www.petfinder.com/member/us/tx/carrollton/great-dane-rescue-of-north-texas-inc-tx325/?referrer_id=deda927d-98bb-4575-a310-15e501c37943
TX1156,Best Friends FurEver,Humble,TX,,https://www.petfinder.com/member/us/tx/humble/best-friends-furever-tx1156/?referrer_id=deda927d-98bb-4575-a310-15e501c37943
TX2532,Redstone Husky Rescue Inc.,Corsicana,TX,,https://www.petfinder.com/member/us/tx/corsicana/redstone-husky-rescue-inc-tx2532/?referrer_id=deda927d-98bb-4575-a310-15e501c37943
TX2451,German Shepherd Rescue of Texas,Waxahachie,TX,,https://www.petfinder.com/member/us/tx/waxahachie/german-shepherd-rescue-of-texas-tx2451/?referrer_id=deda927d-98bb-4575-a310-15e501c37943
TX426,"Hillcrest Animal Rescue, Inc.",Farmersville,TX,(469) 363-6433,https://www.petfinder.com/member/us/tx/farmersville/hillcrest-animal-rescue-inc-tx426/?referrer_id=deda927d-98bb-4575-a310-15e501c37943
TX2177,Homeless Hounds Animal Rescue,Colleyville,TX,817-821-4942,https://www.petfinder.com/member/us/tx/colleyville/homeless-hounds-animal-rescue-tx2177/?referrer_id=deda927d-98bb-4575-a310-15e501c37943
TX1321,Canine Soulmates Rescue,Grapevine,TX,(888) 490-6270,https://www.petfinder.com/member/us/tx/grapevine/canine-soulmates-rescue-tx1321/?referrer_id=deda927d-98bb-4575-a310-15e501c37943
TX360,Winnsboro Animal Shelter,Winnsboro,TX,(903) 342-3400,https://www.petfinder.com/member/us/tx/winnsboro/winnsboro-animal-shelter-tx360/?referrer_id=deda927d-98bb-4575-a310-15e501c37943
TX304,American Boston Terrier Rescue,Gainesville,TX,(972) 407-4440,https://www.petfinder.com/member/us/tx/gainesville/american-boston-terrier-rescue-tx304/?referrer_id=deda927d-98bb-4575-a310-15e501c37943
TX2636,Hellhound Acres Rescue and Hospice,Grandview,TX,(817) 565-7811,https://www.petfinder.com/member/us/tx/grandview/hellhound-acres-rescue-and-hospice-tx2636/?referrer_id=deda927d-98bb-4575-a310-15e501c37943
TX2074,Bull luv able Paws and Chi Wawas Rescue,Dallas,TX,,https://www.petfinder.com/member/us/tx/dallas/bull-luv-able-paws-and-chi-wawas-rescue-tx2074/?referrer_id=deda927d-98bb-4575-a310-15e501c37943
TX443,Companion Animal Network,Carrollton,TX,(903) 967-3226,https://www.petfinder.com/member/us/tx/carrollton/companion-animal-network-tx443/?referrer_id=deda927d-98bb-4575-a310-15e501c37943
TX2202,Sheila's Hope Animal Rescue,Rockwall,TX,(469) 608-1364,https://www.petfinder.com/member/us/tx/rockwall/sheilas-hope-animal-rescue-tx2202/?referrer_id=deda927d-98bb-4575-a310-15e501c37943
TX2717,Dowdy Ferry Animal Commission,Dallas,TX,(469) 661-7443,https://www.petfinder.com/member/us/tx/dallas/dowdy-ferry-animal-commission-tx2717/?referrer_id=deda927d-98bb-4575-a310-15e501c37943
TX2398,Abandoned Pet Project Rescue,Dallas,TX,(214) 253-9023,https://www.petfinder.com/member/us/tx/dallas/abandoned-pet-project-rescue-tx2398/?referrer_id=deda927d-98bb-4575-a310-15e501c37943
TX784,Hill County Paw Pals,Hillsboro,TX,(254) 580-0679,https://www.petfinder.com/member/us/tx/hillsboro/hill-county-paw-pals-tx784/?referrer_id=deda927d-98bb-4575-a310-15e501c37943
TX2341,Living the Doxie Dream Rescue and Sanctuary,Royse City,TX,,https://www.petfinder.com/member/us/tx/royse-city/living-the-doxie-dream-rescue-and-sanctuary-tx2341/?referrer_id=deda927d-98bb-4575-a310-15e501c37943
TX2230,Millie's Mutts,Dallas,TX,(469) 319-2169,https://www.petfinder.com/member/us/tx/dallas/millies-mutts-tx2230/?referrer_id=deda927d-98bb-4575-a310-15e501c37943
TX1552,"Basset Rescue Across Texas, Inc.",Carrollton,TX,,https://www.petfinder.com/member/us/tx/carrollton/basset-rescue-across-texas-inc-tx1552/?referrer_id=deda927d-98bb-4575-a310-15e501c37943
TX684,A Different Breed Animal Rescue,Dallas,TX,(972) 896-6313,https://www.petfinder.com/member/us/tx/dallas/a-different-breed-animal-rescue-tx684/?referrer_id=deda927d-98bb-4575-a310-15e501c37943
TX2179,North Texas Boxer Rescue,Dallas,TX,,https://www.petfinder.com/member/us/tx/dallas/north-texas-boxer-rescue-tx2179/?referrer_id=deda927d-98bb-4575-a310-15e501c37943
TX2505,Love & Paws Rescue,Fort Worth,TX,,https://www.petfinder.com/member/us/tx/fort-worth/love-and-paws-rescue-tx2505/?referrer_id=deda927d-98bb-4575-a310-15e501c37943
TX706,Miniature Schnauzer Rescue of North Texas,Carrollton,TX,,https://www.petfinder.com/member/us/tx/carrollton/miniature-schnauzer-rescue-of-north-texas-tx706/?referrer_id=deda927d-98bb-4575-a310-15e501c37943
TX1239,Hearts and Tails of Hope Pet Rescue,Midlothian,TX,,https://www.petfinder.com/member/us/tx/midlothian/hearts-and-tails-of-hope-pet-rescue-tx1239/?referrer_id=deda927d-98bb-4575-a310-15e501c37943
TX2432,"Canine Lighthouse, Inc.",FRISCO,TX,,https://www.petfinder.com/member/us/tx/frisco/canine-lighthouse-inc-tx2432/?referrer_id=deda927d-98bb-4575-a310-15e501c37943
TX2535,Kritters Looking for Homes,Richardson,TX,(214) 478-7882,https://www.petfinder.com/member/us/tx/richardson/kritters-looking-for-homes-tx2535/?referrer_id=deda927d-98bb-4575-a310-15e501c37943
TX1573,Aussie Rescue & Placement Helpline,North Richland Hills,TX,,https://www.petfinder.com/member/us/tx/north-richland-hills/aussie-rescue-and-placement-helpline-tx1573/?referrer_id=deda927d-98bb-4575-a310-15e501c37943
TX2324,Girty's Place,Farmersville,TX,(469) 812-7340,https://www.petfinder.com/member/us/tx/farmersville/girtys-place-tx2324/?referrer_id=deda927d-98bb-4575-a310-15e501c37943
NY1203,SHARP of NY,Rocky Point,NY,(631) 921-8738,https://www.petfinder.com/member/us/ny/rocky-point/sharp-of-ny-ny1203/?referrer_id=deda927d-98bb-4575-a310-15e501c37943
TX1589,DFW Beagle Buddies,Mansfield,TX,,https://www.petfinder.com/member/us/tx/mansfield/dfw-beagle-buddies-tx1589/?referrer_id=deda927d-98bb-4575-a310-15e501c37943
TN909,Big Dog Haven ,Greeneville ,TN,(615) 517-0282,https://www.petfinder.com/member/us/tn/greeneville/big-dog-haven-tn909/?referrer_id=deda927d-98bb-4575-a310-15e501c37943
TX1467,"Brittany Rescue in Texas, Inc.",Fort Worth,TX,(888) 552-7488,https://www.petfinder.com/member/us/tx/fort-worth/brittany-rescue-in-texas-inc-tx1467/?referrer_id=deda927d-98bb-4575-a310-15e501c37943
TX618,"Scottie Kingdom Rescue, Inc.",Dallas,TX,,https://www.petfinder.com/member/us/tx/dallas/scottie-kingdom-rescue-inc-tx618/?referrer_id=deda927d-98bb-4575-a310-15e501c37943
TX2791,JB's Pet Rescue,Mesquite,TX,(214) 210-7624,https://www.petfinder.com/member/us/tx/mesquite/jbs-pet-rescue-tx2791/?referrer_id=deda927d-98bb-4575-a310-15e501c37943
TX534,Fuzzy Friends Rescue,Waco,TX,(254) 754-9444,https://www.petfinder.com/member/us/tx/waco/fuzzy-friends-rescue-tx534/?referrer_id=deda927d-98bb-4575-a310-15e501c37943
TX1739,Lone Star Westie Rescue,Plano,TX,(877) 561-5922,https://www.petfinder.com/member/us/tx/plano/lone-star-westie-rescue-tx1739/?referrer_id=deda927d-98bb-4575-a310-15e501c37943
TX459,Bosque Animal Rescue Kennels,Clifton,TX,(254) 675-1954,https://www.petfinder.com/member/us/tx/clifton/bosque-animal-rescue-kennels-tx459/?referrer_id=deda927d-98bb-4575-a310-15e501c37943
TX2783,Jack's Doghouse,Sherman,TX,,https://www.petfinder.com/member/us/tx/sherman/jacks-doghouse-tx2783/?referrer_id=deda927d-98bb-4575-a310-15e501c37943
TX1814,Pet Rescue,Royse City,TX,(903) 366-1816,https://www.petfinder.com/member/us/tx/royse-city/pet-rescue-tx1814/?referrer_id=deda927d-98bb-4575-a310-15e501c37943
TX2103,City of Midlothian Animal Shelter,Midlothian,TX,(972) 775-7628,https://www.petfinder.com/member/us/tx/midlothian/city-of-midlothian-animal-shelter-tx2103/?referrer_id=deda927d-98bb-4575-a310-15e501c37943
TX1980,Border Collie Rescue & Rehab of Texas,Allen,TX,(972) 533-9172,https://www.petfinder.com/member/us/tx/allen/border-collie-rescue-and-rehab-of-texas-tx1980/?referrer_id=deda927d-98bb-4575-a310-15e501c37943
TX1401,"Texas Adopt a Greyhound Society, Inc.",Dallas,TX,(214) 368-8247,https://www.petfinder.com/member/us/tx/dallas/texas-adopt-a-greyhound-society-inc-tx1401/?referrer_id=deda927d-98bb-4575-a310-15e501c37943
NH77,Echo Dogs White Shepherd Rescue,Londonderry,NH,,https://www.petfinder.com/member/us/nh/londonderry/echo-dogs-white-shepherd-rescue-nh77/?referrer_id=deda927d-98bb-4575-a310-15e501c37943
TX1644,Bonham Animal Shelter,Bonham,TX,(903) 640-8245,https://www.petfinder.com/member/us/tx/bonham/bonham-animal-shelter-tx1644/?referrer_id=deda927d-98bb-4575-a310-15e501c37943
TX2672,For the Love of Cats Rescue,Dallas,TX,,https://www.petfinder.com/member/us/tx/dallas/for-the-love-of-cats-rescue-tx2672/?referrer_id=deda927d-98bb-4575-a310-15e501c37943
TX1667,DFW German Shepherd Rescue,Weatherford,TX,,https://www.petfinder.com/member/us/tx/weatherford/dfw-german-shepherd-rescue-tx1667/?referrer_id=deda927d-98bb-4575-a310-15e501c37943
TX2794,Saved With Love,Pflugerville,TX,,https://www.petfinder.com/member/us/tx/pflugerville/saved-with-love-tx2794/?referrer_id=deda927d-98bb-4575-a310-15e501c37943
TX2444,Off The Chain Rescue,Cooper,TX,(903) 366-6452,https://www.petfinder.com/member/us/tx/cooper/off-the-chain-rescue-tx2444/?referrer_id=deda927d-98bb-4575-a310-15e501c37943
TX530,City of Highland Village Animal Shelter,Highland Village,TX,(469) 444-0915,https://www.petfinder.com/member/us/tx/highland-village/city-of-highland-village-animal-shelter-tx530/?referrer_id=deda927d-98bb-4575-a310-15e501c37943
TX2205,Gray Mutts Rescue and Sanctuary,Clifton,TX,(254) 218-4167,https://www.petfinder.com/member/us/tx/clifton/gray-mutts-rescue-and-sanctuary-tx2205/?referrer_id=deda927d-98bb-4575-a310-15e501c37943
FL1569,"Shar Pei Nation Rescue, Inc.",Pembroke Pines,FL,,https://www.petfinder.com/member/us/fl/pembroke-pines/shar-pei-nation-rescue-inc-fl1569/?referrer_id=deda927d-98bb-4575-a310-15e501c37943
NY1393,The No Kill Project,Bay Shore,NY,,https://www.petfinder.com/member/us/ny/bay-shore/the-no-kill-project-ny1393/?referrer_id=deda927d-98bb-4575-a310-15e501c37943
TX2811,DFW French Bulldog Rescue,Garland,TX,,https://www.petfinder.com/member/us/tx/garland/dfw-french-bulldog-rescue-tx2811/?referrer_id=deda927d-98bb-4575-a310-15e501c37943
TX1144,Lone Star Pyrs and Paws Rescue,Merit,TX,214-724-0856 ,https://www.petfinder.com/member/us/tx/merit/lone-star-pyrs-and-paws-rescue-tx1144/?referrer_id=deda927d-98bb-4575-a310-15e501c37943
TX399,City of Bridgeport Animal Services,Bridgeport,TX,(940) 683-3430,https://www.petfinder.com/member/us/tx/bridgeport/city-of-bridgeport-animal-services-tx399/?referrer_id=deda927d-98bb-4575-a310-15e501c37943
TX2048,Almost Home Animal Rescue,Fort Worth,TX,(309) 299-5665,https://www.petfinder.com/member/us/tx/fort-worth/almost-home-animal-rescue-tx2048/?referrer_id=deda927d-98bb-4575-a310-15e501c37943
TX2790,Bow Wow Breakout,Crowley,TX,(253) 330-1386,https://www.petfinder.com/member/us/tx/crowley/bow-wow-breakout-tx2790/?referrer_id=deda927d-98bb-4575-a310-15e501c37943
TX2711,Embark Empathy,Cedar Hill,TX,(203) 273-7833,https://www.petfinder.com/member/us/tx/cedar-hill/embark-empathy-tx2711/?referrer_id=deda927d-98bb-4575-a310-15e501c37943
FL1680,DC Dogos Inc,Tampa,FL,(877) 400-3646,https://www.petfinder.com/member/us/fl/tampa/dc-dogos-inc-fl1680/?referrer_id=deda927d-98bb-4575-a310-15e501c37943
TX2722,The Baum Shelter LLC,Alba,TX,,https://www.petfinder.com/member/us/tx/alba/the-baum-shelter-llc-tx2722/?referrer_id=deda927d-98bb-4575-a310-15e501c37943
TX556,"Tonya Griffith's Animal Rescue, Inc.",Frankston,TX,(903) 533-1282,https://www.petfinder.com/member/us/tx/frankston/tonya-griffiths-animal-rescue-inc-tx556/?referrer_id=deda927d-98bb-4575-a310-15e501c37943
TX2763,Hope's Rescue and Recovery Angels,ALLEN,TX,(469) 222-1223,https://www.petfinder.com/member/us/tx/allen/hopes-rescue-and-recovery-angels-tx2763/?referrer_id=deda927d-98bb-4575-a310-15e501c37943
TX1928,City of Everman Animal Shelter,Everman,TX,(817) 561-5495,https://www.petfinder.com/member/us/tx/everman/city-of-everman-animal-shelter-tx1928/?referrer_id=deda927d-98bb-4575-a310-15e501c37943
TX1799,Ready 2 Rescue,Rockwall,TX,(214) 681-5978,https://www.petfinder.com/member/us/tx/rockwall/ready-2-rescue-tx1799/?referrer_id=deda927d-98bb-4575-a310-15e501c37943
TX1275,LARAS House,Mexia,TX,(254) 292-9552,https://www.petfinder.com/member/us/tx/mexia/laras-house-tx1275/?referrer_id=deda927d-98bb-4575-a310-15e501c37943
TX2110,Hunt County Pets Alive,Lone Oak,TX,(903) 600-0738,https://www.petfinder.com/member/us/tx/lone-oak/hunt-county-pets-alive-tx2110/?referrer_id=deda927d-98bb-4575-a310-15e501c37943
TX2198,BNoble Farms and Rescue,Argyle,TX,(972) 567-2224,https://www.petfinder.com/member/us/tx/argyle/bnoble-farms-and-rescue-tx2198/?referrer_id=deda927d-98bb-4575-a310-15e501c37943
TX1795,Dogs Etc of Texas,Dallas,TX,(817) 219-6748,https://www.petfinder.com/member/us/tx/dallas/dogs-etc-of-texas-tx1795/?referrer_id=deda927d-98bb-4575-a310-15e501c37943
TX800,Animal Rescue of Texas (ART),Dallas,TX,(214) 276-7802,https://www.petfinder.com/member/us/tx/dallas/animal-rescue-of-texas-art-tx800/?referrer_id=deda927d-98bb-4575-a310-15e501c37943
TX1979,One by One Pet Rescue,Flower Mound,TX,,https://www.petfinder.com/member/us/tx/flower-mound/one-by-one-pet-rescue-tx1979/?referrer_id=deda927d-98bb-4575-a310-15e501c37943
TX2170,Mutts & Mittens,Fort Worth,TX,(817) 896-6137,https://www.petfinder.com/member/us/tx/fort-worth/mutts-and-mittens-tx2170/?referrer_id=deda927d-98bb-4575-a310-15e501c37943
TX1846,H3R,Haltom City,TX,,https://www.petfinder.com/member/us/tx/haltom-city/h3r-tx1846/?referrer_id=deda927d-98bb-4575-a310-15e501c37943
TX212,Johnson County Humane Society,Burleson,TX,(817) 994-0135,https://www.petfinder.com/member/us/tx/burleson/johnson-county-humane-society-tx212/?referrer_id=deda927d-98bb-4575-a310-15e501c37943
TX114,Coppell Humane Society,Coppell,TX,(972) 462-1121,https://www.petfinder.com/member/us/tx/coppell/coppell-humane-society-tx114/?referrer_id=deda927d-98bb-4575-a310-15e501c37943
TX2092,Blue Angel Weimaraner Rescue,Burleson,TX,(469) 844-0425,https://www.petfinder.com/member/us/tx/burleson/blue-angel-weimaraner-rescue-tx2092/?referrer_id=deda927d-98bb-4575-a310-15e501c37943
TX1303,"Darby's Pals Rescue, Inc.",Kaufman,TX,469-595-6128,https://www.petfinder.com/member/us/tx/kaufman/darbys-pals-rescue-inc-tx1303/?referrer_id=deda927d-98bb-4575-a310-15e501c37943
TX2008,Chewy's Hope,Boyd,TX,(817) 307-0373,https://www.petfinder.com/member/us/tx/boyd/chewys-hope-tx2008/?referrer_id=deda927d-98bb-4575-a310-15e501c37943
TX1338,Life Long Rescue (LLR),Dallas,TX,(469) 474-3472,https://www.petfinder.com/member/us/tx/dallas/life-long-rescue-llr-tx1338/?referrer_id=deda927d-98bb-4575-a310-15e501c37943
